TDRS 5                  
1 21639U 91054B   24238.25075656 -.00000310  00000+0  00000+0 0  9998
2 21639  14.1534 358.5965 0005124 219.8699 143.4903  1.00276865121090
TDRS 6                  
1 22314U 93003B   24238.38776031 -.00000305  00000+0  00000+0 0  9998
2 22314  14.1651   1.8978 0012215 169.0228 256.9093  1.00269547115784
UFO 2 (USA 95)          
1 22787U 93056A   24239.00743780  .00000115  00000+0  00000+0 0  9993
2 22787  11.6768   7.0063 0003258 167.7256 191.3643  1.00274517112047
USA 99 (MILSTAR-1 1)    
1 22988U 94009A   24238.43174442 -.00000210  00000+0  00000+0 0  9991
2 22988  16.6166  34.7192 0002366 143.8084 221.1159  1.00271717 26339
UFO 4 (USA 108)         
1 23467U 95003A   24239.16595566 -.00000031  00000+0  00000+0 0  9995
2 23467   9.6739  15.2483 0004918 141.8296  49.9561  1.00276174108320
TDRS 7                  
1 23613U 95035B   24238.89228861 -.00000212  00000+0  00000+0 0  9994
2 23613  13.6526 352.7333 0026067  77.0631 311.0476  1.00272479106631
USA 115 (MILSTAR-1 2)   
1 23712U 95060A   24238.96474075 -.00000030  00000+0  00000+0 0  9998
2 23712  13.8270   8.5244 0001646 190.8057   2.6853  1.00270419 25025
INMARSAT 3-F1           
1 23839U 96020A   24238.60207347  .00000106  00000+0  00000+0 0  9995
2 23839   9.2100  52.3323 0008072 114.0602 239.0952  0.99988093103647
INMARSAT 3-F2           
1 24307U 96053A   24238.89651595 -.00000263  00000+0  00000+0 0  9996
2 24307   8.3444  60.3049 0007588  84.1414 252.3362  0.99981204102315
INMARSAT 3-F3           
1 24674U 96070A   24238.27112083 -.00000153  00000+0  00000+0 0  9996
2 24674   8.8732  55.6253 0006515 116.4251 248.3255  1.00006192101309
GALAXY 25 (G-25)        
1 24812U 97026A   24238.81458286 -.00000014  00000+0  00000+0 0  9996
2 24812   5.7136  75.3359 0007481  30.6850   6.2917  0.99091635 99684
AMC-3                   
1 24936U 97050A   24238.47363775 -.00000272  00000+0  00000+0 0  9996
2 24936   6.5152  71.4289 0002902 100.8166 260.4791  1.00270619 45814
USA 134                 
1 25019U 97065A   24238.96630459 -.00000073  00000+0  00000+0 0  9994
2 25019  11.9917  26.3747 0001640 160.7421  23.0663  1.00272831 24985
INMARSAT 3-F5           
1 25153U 98006B   24238.83495341 -.00000302  00000+0  00000+0 0  9999
2 25153   8.2005  59.4655 0004739 103.1049  58.6147  1.00271809 97272
ASTRA 2A                
1 25462U 98050A   24239.07160359  .00000056  00000+0  00000+0 0  9991
2 25462   5.4202  76.6536 0002946  80.5468 260.5751  1.00272567 95122
SKYNET 4E               
1 25639U 99009B   24239.06924302 -.00000045  00000+0  00000+0 0  9996
2 25639  11.6723  12.6907 0002632 157.6646 188.1639  1.00272043 93401
ABS-6                   
1 25924U 99053A   24238.84840898 -.00000127  00000+0  00000+0 0  9995
2 25924   0.0601 271.7341 0002998 210.9965 316.3018  1.00284578 91216
UFO 10 (USA 146)        
1 25967U 99063A   24238.26877507 -.00000197  00000+0  00000+0 0  9993
2 25967   9.5058  30.3282 0004359 159.8875 217.6386  1.00276305 90725
GALAXY 11 (G-11)        
1 26038U 99071A   24238.80711115 -.00000067  00000+0  00000+0 0  9990
2 26038   5.0349  78.3647 0000907 182.8549 170.1843  1.00271760 90456
USA 148                 
1 26052U 00001A   24236.66389731  .00000028  00000+0  00000+0 0  9994
2 26052  10.8183  37.2513 0001553 182.8636 171.4759  1.00270826 26319
ASIASTAR                
1 26107U 00016A   24238.90432719 -.00000345  00000+0  00000+0 0  9998
2 26107   7.5690  64.8677 0004091 101.9089 238.4150  1.00269169 89537
USA 149 (DSP 20)        
1 26356U 00024A   24238.66665868  .00000085  00000+0  00000+0 0  9999
2 26356  12.6690  16.3348 0000926 251.8867 140.6854  1.00280262 26295
TDRS 8                  
1 26388U 00034A   24238.59781633  .00000083  00000+0  00000+0 0  9994
2 26388  11.6359  36.6340 0003839 178.2981 167.2248  1.00266093 88558
INTELSAT 9 (IS-9)       
1 26451U 00043A   24239.13902274  .00000128  00000+0  00000+0 0  9992
2 26451   8.9366  55.0594 0004633 135.4270 231.1140  1.00408981 88232
NSS-11                  
1 26554U 00059A   24238.80902251  .00000015  00000+0  00000+0 0  9996
2 26554   0.4091  88.7178 0003024  76.0278 277.0354  1.00271904 87553
USA 153                 
1 26575U 00065A   24238.80085576 -.00000335  00000+0  00000+0 0  9994
2 26575  10.4743  40.4963 0001470 215.0555 141.8586  1.00269791 26306
AMC-6                   
1 26580U 00067A   24239.10409683  .00000094  00000+0  00000+0 0  9996
2 26580   0.0223  74.2286 0002103  75.2353  83.8373  1.00272464 87362
INTELSAT 1R (IS-1R)     
1 26608U 00072A   24237.27692071 -.00000052  00000+0  00000+0 0  9999
2 26608   6.4162  71.9275 0006002  72.7360 313.4540  0.98968993 34689
ANIK F1                 
1 26624U 00076A   24238.60928455 -.00000073  00000+0  00000+0 0  9990
2 26624   3.4785  82.8746 0008744  57.8667 303.7542  1.00271839 36527
USA 157 (MILSTAR-2 2)   
1 26715U 01009A   24238.53471466  .00000002  00000+0  00000+0 0  9996
2 26715  10.8203  23.4825 0002425 148.5439 230.5479  1.00274655 26332
INTELSAT 10 (IS-10)     
1 26766U 01019A   24238.97445236 -.00000072  00000+0  00000+0 0  9995
2 26766   7.4881  65.9512 0004132 110.3280 224.8238  1.00103547 38999
INTELSAT 901 (IS-901)   
1 26824U 01024A   24238.84016624 -.00000212  00000+0  00000+0 0  9993
2 26824   0.0393 279.1135 0000277 280.5840  49.8373  1.00270573 84966
USA 159 (DSP 21)        
1 26880U 01033A   24238.36146984 -.00000308  00000+0  00000+0 0  9991
2 26880  12.1592  20.8460 0002735 205.6226 188.6806  1.00268616 26348
INTELSAT 902 (IS-902)   
1 26900U 01039A   24238.83564847 -.00000294  00000+0  00000+0 0  9998
2 26900   4.4345  79.8027 0004681  90.1953  55.3237  1.00271179 84070
USA 164 (MILSTAR-2 3)   
1 27168U 02001A   24238.63421921  .00000078  00000+0  00000+0 0  9997
2 27168  10.3933  25.4993 0097329   1.1310 192.6399  1.00281805 26331
INTELSAT 904 (IS-904)   
1 27380U 02007A   24239.03521543 -.00000226  00000+0  00000+0 0  9991
2 27380   5.2534  77.0231 0003049 100.9968 139.9301  1.00270951 82461
DIRECTV 5 (TEMPO 1)     
1 27426U 02023A   24238.60911079 -.00000067  00000+0  00000+0 0  9992
2 27426   3.1763  83.5762 0003261  83.1969 276.7445  1.00271941 81494
INTELSAT 905 (IS-905)   
1 27438U 02027A   24238.84077441 -.00000197  00000+0  00000+0 0  9995
2 27438   5.0787  77.6780 0002385  84.8804  90.2055  1.00271343 44749
GALAXY 3C (G-3C)        
1 27445U 02030A   24238.82674611 -.00000162  00000+0  00000+0 0  9999
2 27445   2.0273  86.0338 0003913  50.5131  40.7887  1.00271567 39877
INTELSAT 906 (IS-906)   
1 27513U 02041A   24239.14449622  .00000002  00000+0  00000+0 0  9997
2 27513   4.1116  81.0349 0002305  88.9211 281.0979  1.00273116 80350
TDRS 10                 
1 27566U 02055A   24238.82709501  .00000076  00000+0  00000+0 0  9990
2 27566   9.6877  44.8583 0003087 351.3998  64.9130  1.00274437 79617
NIMIQ 2                 
1 27632U 02062A   24238.60928455 -.00000079  00000+0  00000+0 0  9993
2 27632   7.8914  63.5412 0005646 101.3958 279.5526  1.00271211 37562
USA 167                 
1 27691U 03008A   24238.50396897 -.00000006  00000+0  00000+0 0  9997
2 27691   9.6342  48.9515 0000690 221.3556 123.7558  1.00272743 24993
USA 169 (MILSTAR-2 4)   
1 27711U 03012A   24238.68243552 -.00000207  00000+0  00000+0 0  9996
2 27711  11.3361  34.8666 0096749   4.1530 333.2402  1.00271386 26324
ASIASAT 4               
1 27718U 03014A   24238.85396625 -.00000232  00000+0  00000+0 0  9992
2 27718   3.0028  84.0743 0002599  78.3862 267.1189  1.00272586 78308
HELLAS-SAT 2            
1 27811U 03020A   24238.84364146 -.00000094  00000+0  00000+0 0  9991
2 27811   5.6940  75.6858 0006245 104.0536  88.5644  1.00272186 77714
THURAYA-2               
1 27825U 03026A   24238.94799174  .00000115  00000+0  00000+0 0  9999
2 27825   7.8195  34.0479 0002212  94.4155 231.5080  1.00273535 77726
OPTUS C1                
1 27831U 03028B   24238.85396625 -.00000163  00000+0  00000+0 0  9996
2 27831   5.2192  77.3416 0005524  82.2044 278.1977  1.00271176 46439
GALAXY 23 (G-23)        
1 27854U 03034A   24238.60702566  .00000003  00000+0  00000+0 0  9998
2 27854   1.4814  88.1287 0002726  76.9532 266.9200  1.00270746 77117
USA 170                 
1 27875U 03040A   24238.72896726  .00000117  00000+0  00000+0 0  9999
2 27875   9.0836  53.8357 0001097  71.6498 135.5862  1.00273970 26366
GALAXY 13 (HORIZONS-1)  
1 27954U 03044A   24238.44053663  .00000124  00000+0  00000+0 0  9993
2 27954   0.0150 110.7768 0002384  53.4023 178.6066  1.00259684 39943
YAMAL 202               
1 28089U 03053A   24238.83591306 -.00000091  00000+0  00000+0 0  9991
2 28089   4.6624  78.9102 0005120  89.3453 270.7546  1.00272595 76070
UFO 11 (USA 174)        
1 28117U 03057A   24238.97484972 -.00000112  00000+0  00000+0 0  9996
2 28117   8.1745  36.5173 0003693 122.4997 241.8917  1.00271224 75830
USA 176 (DSP 22)        
1 28158U 04004A   24238.93450639 -.00000230  00000+0  00000+0 0  9994
2 28158  11.1557  30.5754 0000801 246.8247 121.0760  1.00272331 24992
ABS-4 (MOBISAT-1)       
1 28184U 04007A   24239.14380116  .00000028  00000+0  00000+0 0  9996
2 28184   4.3568  79.9964 0004771  95.4112 272.1994  1.00270604 74966
EUTELSAT 7A             
1 28187U 04008A   24239.10409683  .00000092  00000+0  00000+0 0  9998
2 28187   4.1418  79.8092 0002540 130.0931  23.1790  1.00272397 74957
AMC-11                  
1 28252U 04017A   24238.60893703 -.00000058  00000+0  00000+0 0  9998
2 28252   0.0503 299.9726 0001668 244.0230 258.4588  1.00270287 74243
INTELSAT 10-02          
1 28358U 04022A   24238.84537906 -.00000020  00000+0  00000+0 0  9996
2 28358   0.0410 280.1788 0000147 142.0295 215.7237  1.00272310 73937
ANIK F2                 
1 28378U 04027A   24238.60893703 -.00000059  00000+0  00000+0 0  9999
2 28378   1.5798  87.9694 0002457  33.1791 321.3033  1.00271787 34639
